{
  "norad_id": 58711,
  "name": "STARLINK-31031",
  "history": [
    {
      "epoch": "2026-03-28T10:27:05.404608Z",
      "apogee_km": 476.57325064353245,
      "perigee_km": 473.89303464814657,
      "latitude_deg": -1.8184820014636784e-05,
      "longitude_deg": 160.3659036012803,
      "height_km": 476.55776548357704,
      "semi_major_axis_km": 6853.370142645839,
      "eccentricity": 0.00019554,
      "inclination_deg": 53.1611,
      "raan_deg": 142.9944,
      "arg_perigee_deg": 108.5919,
      "mean_anomaly_deg": 251.5294,
      "mean_motion_rev_day": 15.30193947
    }
  ]
}